{"type": "FeatureCollection", "features": [ {"type": "Feature", "properties": {"norad_id": 35670, "name": "COSMOS 2251 DEB", "group": "cosmos-2251-debris", "lat": 16.734059873279246, "lon": 88.48420583771889, "alt_km": 564.9377528365412, "timestamp": "2025-12-03T08:58:46.399470+00:00", "meta": {"OBJECT_NAME": "COSMOS 2251 DEB", "OBJECT_ID": "1993-036APM", "EPOCH": "2025-12-03T00:51:50.152032", "MEAN_MOTION": 14.93482129, "ECCENTRICITY": 0.0036933, "INCLINATION": 73.8945, "RA_OF_ASC_NODE": 84.1864, "ARG_OF_PERICENTER": 48.0359, "MEAN_ANOMALY": 312.396, "EPHEMERIS_TYPE": 0, "CLASSIFICATION_TYPE": "U", "NORAD_CAT_ID": 35670, "ELEMENT_SET_NO": 999, "REV_AT_EPOCH": 87582, "BSTAR": 0.0019069, "MEAN_MOTION_DOT": 0.00020358, "MEAN_MOTION_DDOT": 0}, "tle": {"line1": "1 35670U 93036APM 25337.03599713  .00020358  00000+0  19069-2 0  9993", "line2": "2 35670  73.8945  84.1864 0036933  48.0359 312.3960 14.93482129875820"}}, "geometry": {"type": "Point", "coordinates": [88.48420583771889, 16.734059873279246]}}, {"type": "Feature", "properties": {"norad_id": 35671, "name": "COSMOS 2251 DEB", "group": "cosmos-2251-debris", "lat": -4.983738206684212, "lon": -81.69290758777753, "alt_km": 732.9474496396524, "timestamp": "2025-12-03T08:58:46.399480+00:00", "meta": {"OBJECT_NAME": "COSMOS 2251 DEB", "OBJECT_ID": "1993-036APN", "EPOCH": "2025-12-03T02:19:30.984960", "MEAN_MOTION": 14.48319371, "ECCENTRICITY": 0.0041549, "INCLINATION": 74.0174, "RA_OF_ASC_NODE": 97.3946, "ARG_OF_PERICENTER": 273.0899, "MEAN_ANOMALY": 267.4122, "EPHEMERIS_TYPE": 0, "CLASSIFICATION_TYPE": "U", "NORAD_CAT_ID": 35671, "ELEMENT_SET_NO": 999, "REV_AT_EPOCH": 86623, "BSTAR": 0.00032103, "MEAN_MOTION_DOT": 1.185e-05, "MEAN_MOTION_DDOT": 0}, "tle": {"line1": "1 35671U 93036APN 25337.09688640  .00001185  00000+0  32103-3 0  9990", "line2": "2 35671  74.0174  97.3946 0041549 273.0899 267.4122 14.48319371866236"}}, "geometry": {"type": "Point", "coordinates": [-81.69290758777753, -4.983738206684212]}}, {"type": "Feature", "properties": {"norad_id": 35674, "name": "COSMOS 2251 DEB", "group": "cosmos-2251-debris", "lat": -45.0020471759629, "lon": 170.80111786996397, "alt_km": 780.1497051203187, "timestamp": "2025-12-03T08:58:46.399490+00:00", "meta": {"OBJECT_NAME": "COSMOS 2251 DEB", "OBJECT_ID": "1993-036APR", "EPOCH": "2025-12-02T10:28:10.862976", "MEAN_MOTION": 14.53935413, "ECCENTRICITY": 0.00959603, "INCLINATION": 74.0597, "RA_OF_ASC_NODE": 335.9623, "ARG_OF_PERICENTER": 23.2163, "MEAN_ANOMALY": 337.329, "EPHEMERIS_TYPE": 0, "CLASSIFICATION_TYPE": "U", "NORAD_CAT_ID": 35674, "ELEMENT_SET_NO": 999, "REV_AT_EPOCH": 85961, "BSTAR": 0.0019444081, "MEAN_MOTION_DOT": 8.683e-05, "MEAN_MOTION_DDOT": 0}, "tle": {"line1": "1 35674U 93036APR 25336.43623684  .00008683  00000+0  19444-2 0  9999", "line2": "2 35674  74.0597 335.9623 0095960  23.2163 337.3290 14.53935413859610"}}, "geometry": {"type": "Point", "coordinates": [170.80111786996397, -45.0020471759629]}}, {"type": "Feature", "properties": {"norad_id": 35703, "name": "COSMOS 2251 DEB", "group": "cosmos-2251-debris", "lat": 47.230795473527664, "lon": 79.52500201144449, "alt_km": 588.5456885804115, "timestamp": "2025-12-03T08:58:46.399499+00:00", "meta": {"OBJECT_NAME": "COSMOS 2251 DEB", "OBJECT_ID": "1993-036APY", "EPOCH": "2025-12-02T23:05:17.619072", "MEAN_MOTION": 14.90110737, "ECCENTRICITY": 0.0065412, "INCLINATION": 74.043, "RA_OF_ASC_NODE": 62.3307, "ARG_OF_PERICENTER": 135.4936, "MEAN_ANOMALY": 225.1528, "EPHEMERIS_TYPE": 0, "CLASSIFICATION_TYPE": "U", "NORAD_CAT_ID": 35703, "ELEMENT_SET_NO": 999, "REV_AT_EPOCH": 66470, "BSTAR": 0.001148, "MEAN_MOTION_DOT": 0.00011542, "MEAN_MOTION_DDOT": 0}, "tle": {"line1": "1 35703U 93036APY 25336.96200948  .00011542  00000+0  11480-2 0  9994", "line2": "2 35703  74.0430  62.3307 0065412 135.4936 225.1528 14.90110737664709"}}, "geometry": {"type": "Point", "coordinates": [79.52500201144449, 47.230795473527664]}}, {"type": "Feature", "properties": {"norad_id": 35705, "name": "COSMOS 2251 DEB", "group": "cosmos-2251-debris", "lat": 74.19927148552802, "lon": -121.59025537563406, "alt_km": 625.8286382923452, "timestamp": "2025-12-03T08:58:46.399510+00:00", "meta": {"OBJECT_NAME": "COSMOS 2251 DEB", "OBJECT_ID": "1993-036AQA", "EPOCH": "2025-11-30T18:34:55.460928", "MEAN_MOTION": 14.71601566, "ECCENTRICITY": 0.00343203, "INCLINATION": 74.2748, "RA_OF_ASC_NODE": 158.7429, "ARG_OF_PERICENTER": 116.054, "MEAN_ANOMALY": 244.4173, "EPHEMERIS_TYPE": 0, "CLASSIFICATION_TYPE": "U", "NORAD_CAT_ID": 35705, "ELEMENT_SET_NO": 999, "REV_AT_EPOCH": 85750, "BSTAR": 0.0026714631, "MEAN_MOTION_DOT": 0.00016783, "MEAN_MOTION_DDOT": 0}, "tle": {"line1": "1 35705U 93036AQA 25334.77425302  .00016783  00000+0  26715-2 0  9995", "line2": "2 35705  74.2748 158.7429 0034320 116.0540 244.4173 14.71601566857506"}}, "geometry": {"type": "Point", "coordinates": [-121.59025537563406, 74.19927148552802]}}, {"type": "Feature", "properties": {"norad_id": 35706, "name": "COSMOS 2251 DEB", "group": "cosmos-2251-debris", "lat": -37.54314676594516, "lon": 65.4461242196874, "alt_km": 1268.3030323094927, "timestamp": "2025-12-03T08:58:46.399520+00:00", "meta": {"OBJECT_NAME": "COSMOS 2251 DEB", "OBJECT_ID": "1993-036AQB", "EPOCH": "2025-12-01T13:14:17.826144", "MEAN_MOTION": 13.65877076, "ECCENTRICITY": 0.03419141, "INCLINATION": 73.888, "RA_OF_ASC_NODE": 81.2903, "ARG_OF_PERICENTER": 133.1878, "MEAN_ANOMALY": 229.8353, "EPHEMERIS_TYPE": 0, "CLASSIFICATION_TYPE": "U", "NORAD_CAT_ID": 35706, "ELEMENT_SET_NO": 999, "REV_AT_EPOCH": 61909, "BSTAR": 0.0013112957, "MEAN_MOTION_DOT": 1.587e-05, "MEAN_MOTION_DDOT": 0}, "tle": {"line1": "1 35706U 93036AQB 25335.55159521  .00001587  00000+0  13113-2 0  9994", "line2": "2 35706  73.8880  81.2903 0341914 133.1878 229.8353 13.65877076619090"}}, "geometry": {"type": "Point", "coordinates": [65.4461242196874, -37.54314676594516]}}, {"type": "Feature", "properties": {"norad_id": 35711, "name": "COSMOS 2251 DEB", "group": "cosmos-2251-debris", "lat": -20.69968578921069, "lon": -127.77538062062881, "alt_km": 626.0215278351707, "timestamp": "2025-12-03T08:58:46.399529+00:00", "meta": {"OBJECT_NAME": "COSMOS 2251 DEB", "OBJECT_ID": "1993-036AQG", "EPOCH": "2025-12-02T00:16:13.414368", "MEAN_MOTION": 14.63746545, "ECCENTRICITY": 0.0085061, "INCLINATION": 74.0469, "RA_OF_ASC_NODE": 241.0434, "ARG_OF_PERICENTER": 344.6598, "MEAN_ANOMALY": 15.1992, "EPHEMERIS_TYPE": 0, "CLASSIFICATION_TYPE": "U", "NORAD_CAT_ID": 35711, "ELEMENT_SET_NO": 999, "REV_AT_EPOCH": 87614, "BSTAR": 0.00037639463, "MEAN_MOTION_DOT": 2.034e-05, "MEAN_MOTION_DDOT": 0}, "tle": {"line1": "1 35711U 93036AQG 25336.01126637  .00002034  00000+0  37639-3 0  9992", "line2": "2 35711  74.0469 241.0434 0085061 344.6598  15.1992 14.63746545876144"}}, "geometry": {"type": "Point", "coordinates": [-127.77538062062881, -20.69968578921069]}}, {"type": "Feature", "properties": {"norad_id": 35716, "name": "COSMOS 2251 DEB", "group": "cosmos-2251-debris", "lat": -3.5394599410643512, "lon": 33.14183373827255, "alt_km": 734.2088991679675, "timestamp": "2025-12-03T08:58:46.399540+00:00", "meta": {"OBJECT_NAME": "COSMOS 2251 DEB", "OBJECT_ID": "1993-036AQM", "EPOCH": "2025-12-02T22:21:42.031008", "MEAN_MOTION": 14.60067337, "ECCENTRICITY": 0.0088437, "INCLINATION": 73.9934, "RA_OF_ASC_NODE": 212.9707, "ARG_OF_PERICENTER": 56.5126, "MEAN_ANOMALY": 321.7811, "EPHEMERIS_TYPE": 0, "CLASSIFICATION_TYPE": "U", "NORAD_CAT_ID": 35716, "ELEMENT_SET_NO": 999, "REV_AT_EPOCH": 87484, "BSTAR": 0.00016848, "MEAN_MOTION_DOT": 8.23e-06, "MEAN_MOTION_DDOT": 0}, "tle": {"line1": "1 35716U 93036AQM 25336.93173647  .00000823  00000+0  16848-3 0  9994", "line2": "2 35716  73.9934 212.9707 0088437  56.5126 321.7811 14.60067337874843"}}, "geometry": {"type": "Point", "coordinates": [33.14183373827255, -3.5394599410643512]}}, {"type": "Feature", "properties": {"norad_id": 35717, "name": "COSMOS 2251 DEB", "group": "cosmos-2251-debris", "lat": -38.45331980458282, "lon": -138.3911580683583, "alt_km": 810.3325597045423, "timestamp": "2025-12-03T08:58:46.399549+00:00", "meta": {"OBJECT_NAME": "COSMOS 2251 DEB", "OBJECT_ID": "1993-036AQN", "EPOCH": "2025-11-20T02:19:42.985056", "MEAN_MOTION": 14.38259242, "ECCENTRICITY": 0.00762455, "INCLINATION": 74.1612, "RA_OF_ASC_NODE": 258.9085, "ARG_OF_PERICENTER": 125.8129, "MEAN_ANOMALY": 235.0143, "EPHEMERIS_TYPE": 0, "CLASSIFICATION_TYPE": "U", "NORAD_CAT_ID": 35717, "ELEMENT_SET_NO": 999, "REV_AT_EPOCH": 73774, "BSTAR": 0.0010708512, "MEAN_MOTION_DOT": 3.344e-05, "MEAN_MOTION_DDOT": 0}, "tle": {"line1": "1 35717U 93036AQN 25324.09702529  .00003344  00000+0  10709-2 0  9996", "line2": "2 35717  74.1612 258.9085 0076245 125.8129 235.0143 14.38259242737741"}}, "geometry": {"type": "Point", "coordinates": [-138.3911580683583, -38.45331980458282]}}, {"type": "Feature", "properties": {"norad_id": 35718, "name": "COSMOS 2251 DEB", "group": "cosmos-2251-debris", "lat": 46.68392195133925, "lon": -49.585703352006405, "alt_km": 658.3360234669635, "timestamp": "2025-12-03T08:58:46.399559+00:00", "meta": {"OBJECT_NAME": "COSMOS 2251 DEB", "OBJECT_ID": "1993-036AQP", "EPOCH": "2025-11-28T18:49:36.496416", "MEAN_MOTION": 14.68279459, "ECCENTRICITY": 0.00123436, "INCLINATION": 74.0315, "RA_OF_ASC_NODE": 156.9668, "ARG_OF_PERICENTER": 206.7375, "MEAN_ANOMALY": 153.316, "EPHEMERIS_TYPE": 0, "CLASSIFICATION_TYPE": "U", "NORAD_CAT_ID": 35718, "ELEMENT_SET_NO": 999, "REV_AT_EPOCH": 65635, "BSTAR": 0.0013999458, "MEAN_MOTION_DOT": 8.062e-05, "MEAN_MOTION_DDOT": 0}, "tle": {"line1": "1 35718U 93036AQP 25332.78445019  .00008062  00000+0  13999-2 0  9996", "line2": "2 35718  74.0315 156.9668 0012343 206.7375 153.3160 14.68279459656359"}}, "geometry": {"type": "Point", "coordinates": [-49.585703352006405, 46.68392195133925]}}]}